#aV2009 10 28  0  0   .00000000      96 DD+AD WGS84 FIT  NGA
## 1555 259200.00000000   900.00000000 55132  .0000000000000
+   31     1  2  3  4  5  6  7  8  9 10 11 12 13 14 15 16 17
+         18 19 20 21 22 23 24 26 27 28 29 30 31 32  0  0  0
+          0  0  0  0  0  0  0  0  0  0  0  0  0  0  0  0  0
+          0  0  0  0  0  0  0  0  0  0  0  0  0  0  0  0  0
+          0  0  0  0  0  0  0  0  0  0  0  0  0  0  0  0  0
++         0  0  0  0  0  0  0  0  0  0  0  0  0  0  0  0  0
++         0  0  0  0  0  0  0  0  0  0  0  0  0  0  0  0  0
++         0  0  0  0  0  0  0  0  0  0  0  0  0  0  0  0  0
++         0  0  0  0  0  0  0  0  0  0  0  0  0  0  0  0  0
++         0  0  0  0  0  0  0  0  0  0  0  0  0  0  0  0  0
%c cc cc ccc ccc cccc cccc cccc cccc ccccc ccccc ccccc ccccc
%c cc cc ccc ccc cccc cccc cccc cccc ccccc ccccc ccccc ccccc
%f  0.0000000  0.000000000  0.00000000000  0.000000000000000
%f  0.0000000  0.000000000  0.00000000000  0.000000000000000
%i    0    0    0    0      0      0      0      0         0
%i    0    0    0    0      0      0      0      0         0
/*      NGA, ST. LOUIS,MO.                                  
/*   EPHEMERIS COMPUTED FROM  3 DAYS OF DATA                
/* CCCCCCCCCCCCCCCCCCCCCCCCCCCCCCCCCCCCCCCCCCCCCCCCCCCCCCCCC
/* CCCCCCCCCCCCCCCCCCCCCCCCCCCCCCCCCCCCCCCCCCCCCCCCCCCCCCCCC
*  2009 10 28 14 30   .00000000                                                 
P  1   8658.066527  16653.043053 -18934.663770    -62.228421                    
V  1 -23045.231806  -6050.059880 -15844.312651      -.017357                    
P  2 -22071.239184  10713.025759  -9681.891241    185.537006                    
V  2   6808.405478 -10871.023832 -28173.585806       .039457                    
P  3  13405.961214  -8987.605081  20710.866336    466.813980                    
V  3   9434.091392  25606.175662   5273.483217       .051896                    
P  4 -20271.954386    929.384931 -17472.497445   -332.237532                    
V  4  15143.840437 -15802.651026 -18205.323267      -.179675                    
P  5 -20586.915352   5078.872151  16027.977880    -55.600156                    
V  5 -18771.219394  -8064.799813 -21465.239376       .078538                    
P  6  15103.375828  -4976.876870  21450.674782    257.222830                    
V  6   6925.755088  26022.837033   1266.453596       .031857                    
P  7  -1385.049765 -17234.499368  20102.604839      8.760407                    
V  7  19817.472179 -16206.816513 -12670.298808      -.007234                    
P  8 -12983.942201  -7964.904304  21791.697235     -9.979830                    
V  8  21639.408515 -17116.075286   6118.929253       .970418                    
P  9 -13877.282671  21179.776557  -8579.300506     85.441716                    
V  9  -8603.845235   5436.754064  29679.962400       .020005                    
P 10 -22792.856474   2083.893343  13590.665568    -26.983173                    
V 10 -15693.910155  -7837.619608 -24484.165302      -.009318                    
P 11   8634.706879 -23608.490357  -8231.732561    -26.440993                    
V 11   9994.014899  -5633.361898  27791.819002      -.018731                    
P 12  -6374.883434  13675.201124 -21797.312465   -198.024602                    
V 12 -26269.082746  -9078.565812   2101.917683       .053561                    
P 13  -5836.023596 -25678.833891   3264.110024    305.935337                    
V 13   1132.155636  -4495.630797 -32136.318010       .002398                    
P 14  13686.194057  15440.937392 -16661.994024    -31.777752                    
V 14   2223.228245  21229.828718  21200.328867       .049192                    
P 15  -9436.127851  16844.856937  18233.698841   -320.387015                    
V 15  -6682.612839 -22214.797952  17170.790743      -.000408                    
P 16  24642.862806   1357.660920  10181.501667     -2.348319                    
V 16  11340.853152   6216.911188 -28163.242505      -.041036                    
P 17 -14588.028896 -14830.790640 -16557.144207     97.145390                    
V 17  -2175.385067 -21043.919748  20477.162468       .033285                    
P 18  14613.638394  16844.750870  14954.085282     23.479824                    
V 18 -18112.446522  -4175.262672  22414.631245       .028319                    
P 19   9679.678837 -17919.453825  16939.536738      4.120237                    
V 19   4764.843091  21110.988255  19927.825267      -.019015                    
P 20   1646.461210 -15823.678723 -21397.350696     68.932455                    
V 20  25925.502572   7383.981909  -3435.355032      -.008927                    
P 21   6620.439497  14950.252767  21134.978324    -17.886310                    
V 21 -20559.786111  16552.874654  -5970.635324      -.023461                    
P 22  23160.323523  12226.475242   4834.034172    187.656021                    
V 22  -6734.987330   1130.577512  30382.766369      -.010980                    
P 23   1687.319071 -24603.463368  -9479.884254    386.868925                    
V 23   4857.170447  11344.707161 -28962.554835      -.005565                    
P 24  -8729.020402  20536.677076  14708.100079    232.053325                    
V 24 -15653.707949   9904.580296 -23053.468646       .030095                    
P 26  10701.571129  21436.492522 -11447.004652      6.233711                    
V 26    241.595288  13956.994694  28127.285455      -.016470                    
P 27 -17242.389346  19871.017743  -2762.154885     95.119040                    
V 27  -4780.032715   1375.545783  31878.705698       .031266                    
P 28 -21830.752478 -13603.273919   7689.673981    -25.719171                    
V 28   9250.036874   1138.893776  29712.156023       .000756                    
P 29   4875.397917  26131.183826    262.049206     69.749105                    
V 29  -2728.375226    716.453674 -31708.285587       .030790                    
P 30   6620.025786  16634.263203 -20025.038930    188.578438                    
V 30 -23977.073747  -5587.279392 -12757.677095       .030777                    
P 31  20637.826573  -3737.083266 -16168.050303    -62.165292                    
V 31 -14489.795132  15060.409457 -21552.953650       .006151                    
P 32  10635.297856 -11434.185821 -21064.166787    169.108560                    
V 32  25170.216679  11558.192455   6607.585819      -.074373                    
EOF
